OBJECT_NAME,OBJECT_ID,EPOCH,MEAN_MOTION,ECCENTRICITY,INCLINATION,RA_OF_ASC_NODE,ARG_OF_PERICENTER,MEAN_ANOMALY,EPHEMERIS_TYPE,CLASSIFICATION_TYPE,NORAD_CAT_ID,ELEMENT_SET_NO,REV_AT_EPOCH,BSTAR,MEAN_MOTION_DOT,MEAN_MOTION_DDOT
BADR-5,2010-025A,2026-07-16T19:37:38.580960,1.00271482,.0005224,0.0527,113.9207,81.6404,63.9420,0,U,36592,999,5351,0,.143E-5,0
COMS 1,2010-032A,2026-07-16T11:24:18.563904,0.99167627,.0011246,4.8786,75.0015,14.9725,332.3841,0,U,36744,999,5137,0,-.25E-5,0
ARABSAT-5A,2010-032B,2026-07-16T19:37:38.580960,1.00275015,.0005738,0.1147,67.2124,57.4159,134.9478,0,U,36745,999,5894,0,.143E-5,0
ECHOSTAR 15,2010-034A,2026-07-16T14:28:01.054272,1.00272325,.0001849,0.0453,260.6494,196.1521,295.8193,0,U,36792,999,5861,0,-.11E-6,0
BEIDOU-2 IGSO-1,2010-036A,2026-07-14T22:00:55.325664,1.00264343,.0059022,54.3063,162.7092,225.2803,342.1032,0,U,36828,999,5837,0,-.122E-5,0
NILESAT 201,2010-037A,2026-07-16T08:09:23.072832,1.00272751,.0005704,0.0460,228.7066,272.1729,268.6694,0,U,36830,999,5866,0,-.68E-6,0
RASCOM-QAF 1R,2010-037B,2026-07-16T19:53:38.707008,1.00270894,.0006216,0.0091,56.7581,49.8427,129.3611,0,U,36831,999,5860,0,.8E-7,0
AEHF-1 (USA 214),2010-039A,2026-07-16T19:37:38.580960,1.00275500,.0003807,8.2923,67.6597,37.4821,153.8883,0,U,36868,999,5395,0,.134E-5,0
XM-5,2010-053A,2026-07-16T14:29:08.446272,1.00269656,.0001442,0.0613,264.2736,329.0003,163.2348,0,U,37185,999,5777,0,-.33E-6,0
BSAT-3B,2010-056B,2026-07-16T18:02:56.568768,1.00270506,.0002704,0.0722,244.7862,296.9333,133.4245,0,U,37207,999,5239,0,-.36E-5,0
BEIDOU-2 G4,2010-057A,2026-07-16T19:12:56.363904,1.00272565,.0005609,3.7186,68.7578,185.7426,128.2821,0,U,37210,999,5758,0,-.125E-5,0
SKYTERRA 1,2010-061A,2026-07-16T14:33:00.575424,1.00270386,.0002579,5.1860,50.8064,26.3471,334.1974,0,U,37218,999,5748,0,-.13E-5,0
HYLAS 1,2010-065A,2026-07-16T19:37:38.580960,1.00641902,.0001147,5.7166,72.6522,144.0165,46.9098,0,U,37237,999,718,0,.124E-5,0
INTELSAT 17 (IS-17),2010-065B,2026-07-16T18:42:21.608064,1.00271030,.0002573,0.0060,106.8614,21.7839,152.5366,0,U,37238,999,5354,0,-.12E-6,0
BEIDOU-2 IGSO-2,2010-068A,2026-07-15T15:35:22.636320,1.00272942,.00569016,47.4956,271.4764,213.8035,150.3630,0,U,37256,999,5708,0,-.192E-5,0
EUTELSAT KA-SAT 9A,2010-069A,2026-07-16T19:53:38.707008,1.00271210,.0004544,0.0610,0.9714,143.3373,97.7421,0,U,37258,999,4430,0,.51E-6,0
HISPASAT 30W-5,2010-070A,2026-07-16T20:17:39.107328,1.00270184,.0005665,0.0320,108.4910,19.4864,81.0953,0,U,37264,999,5348,0,-.227E-5,0
KOREASAT 6,2010-070B,2026-07-16T19:12:48.877344,1.00271120,.0002575,0.0145,60.7366,68.5709,253.4123,0,U,37265,999,5706,0,-.122E-5,0
BEIDOU-2 IGSO-3,2011-013A,2026-07-16T12:06:39.245760,1.00260363,.0035582,62.4487,39.8739,183.5035,359.0316,0,U,37384,999,5595,0,-.169E-5,0
INTELSAT 28 (IS-28),2011-016A,2026-07-16T20:17:39.107328,1.00272027,.0003742,1.8811,82.2607,40.7092,84.4035,0,U,37392,999,5358,0,-.236E-5,0
YAHSAT 1A,2011-016B,2026-07-16T19:26:38.765760,1.00270909,.0003313,0.0219,72.7690,46.6633,159.3804,0,U,37393,999,4270,0,0,0
SBIRS GEO-1 (USA 230),2011-019A,2026-07-16T19:26:38.765760,1.00272379,.0001917,4.5996,53.0964,56.9147,168.0904,0,U,37481,999,5569,0,.88E-6,0
TELSTAR 14R,2011-021A,2026-07-14T13:07:01.087104,1.00270342,.00016,0.0856,84.9749,1.1935,339.9946,0,U,37602,999,5610,0,-.288E-5,0
GSAT-8,2011-022A,2026-07-16T20:25:34.320288,1.00272175,.0002587,2.2059,81.4603,160.4460,54.2533,0,U,37605,999,5351,0,.73E-6,0
ST-2,2011-022B,2026-07-16T18:15:38.791296,1.00271647,.0001577,0.0133,79.2188,53.0064,164.2938,0,U,37606,999,5557,0,-.222E-5,0
ZHONGXING-10,2011-026A,2026-07-16T21:44:02.529312,1.00273513,.0003311,1.1219,83.8348,20.0312,242.3520,0,U,37677,999,5529,0,-.199E-5,0
SES-3,2011-035A,2026-07-16T14:32:30.623136,1.00271460,.0002,1.4008,82.7593,33.3515,293.4605,0,U,37748,999,5488,0,-.113E-5,0
KAZSAT-2,2011-035B,2026-07-16T18:15:38.791296,1.00272664,.000197,0.0263,113.4645,58.7720,122.7667,0,U,37749,999,5369,0,-.208E-5,0
BEIDOU-2 IGSO-4,2011-038A,2026-07-12T21:52:21.720000,1.00279714,.01603423,54.6038,165.4445,231.4539,316.2369,0,U,37763,999,5490,0,-.17E-6,0
ASTRA 1N,2011-041A,2026-07-16T19:45:38.762784,1.00270503,.0005819,0.0619,13.3405,101.6889,135.2044,0,U,37775,999,4482,0,.109E-5,0
BSAT-3C (JCSAT-110R),2011-041B,2026-07-16T18:02:56.568768,1.00270860,.0000221,0.0382,298.6507,252.4184,124.1914,0,U,37776,999,5076,0,-.361E-5,0
PAKSAT-1R,2011-042A,2026-07-16T19:34:38.714304,1.00269516,.0003111,0.7640,84.3166,351.7449,190.2045,0,U,37779,999,5477,0,.143E-5,0
