BADR-5                  
1 36592U 10025A   26197.81780765  .00000143  00000+0  00000+0 0  9996
2 36592   0.0527 113.9207 0005224  81.6404  63.9420  1.00271482 53513
COMS 1                  
1 36744U 10032A   26197.47521486 -.00000250  00000+0  00000+0 0  9998
2 36744   4.8786  75.0015 0011246  14.9725 332.3841  0.99167627 51376
ARABSAT-5A              
1 36745U 10032B   26197.81780765  .00000143  00000+0  00000+0 0  9994
2 36745   0.1147  67.2124 0005738  57.4159 134.9478  1.00275015 58949
ECHOSTAR 15             
1 36792U 10034A   26197.60278998 -.00000011  00000+0  00000+0 0  9990
2 36792   0.0453 260.6494 0001849 196.1521 295.8193  1.00272325 58618
BEIDOU-2 IGSO-1         
1 36828U 10036A   26195.91730701 -.00000122  00000+0  00000+0 0  9992
2 36828  54.3063 162.7092 0059022 225.2803 342.1032  1.00264343 58378
NILESAT 201             
1 36830U 10037A   26197.33985038 -.00000068  00000+0  00000+0 0  9998
2 36830   0.0460 228.7066 0005704 272.1729 268.6694  1.00272751 58660
RASCOM-QAF 1R           
1 36831U 10037B   26197.82892022  .00000008  00000+0  00000+0 0  9996
2 36831   0.0091  56.7581 0006216  49.8427 129.3611  1.00270894 58607
AEHF-1 (USA 214)        
1 36868U 10039A   26197.81780765  .00000134  00000+0  00000+0 0  9997
2 36868   8.2923  67.6597 0003807  37.4821 153.8883  1.00275500 53958
XM-5                    
1 37185U 10053A   26197.60356998 -.00000033  00000+0  00000+0 0  9999
2 37185   0.0613 264.2736 0001442 329.0003 163.2348  1.00269656 57772
BSAT-3B                 
1 37207U 10056B   26197.75204362 -.00000360  00000+0  00000+0 0  9993
2 37207   0.0722 244.7862 0002704 296.9333 133.4245  1.00270506 52395
BEIDOU-2 G4             
1 37210U 10057A   26197.80065236 -.00000125  00000+0  00000+0 0  9998
2 37210   3.7186  68.7578 0005609 185.7426 128.2821  1.00272565 57581
SKYTERRA 1              
1 37218U 10061A   26197.60625666 -.00000130  00000+0  00000+0 0  9994
2 37218   5.1860  50.8064 0002579  26.3471 334.1974  1.00270386 57484
HYLAS 1                 
1 37237U 10065A   26197.81780765  .00000124  00000+0  00000+0 0  9996
2 37237   5.7166  72.6522 0001147 144.0165  46.9098  1.00641902  7182
INTELSAT 17 (IS-17)     
1 37238U 10065B   26197.77941676 -.00000012  00000+0  00000+0 0  9999
2 37238   0.0060 106.8614 0002573  21.7839 152.5366  1.00271030 53543
BEIDOU-2 IGSO-2         
1 37256U 10068A   26196.64956755 -.00000192  00000+0  00000+0 0  9990
2 37256  47.4956 271.4764 0056901 213.8035 150.3630  1.00272942 57089
EUTELSAT KA-SAT 9A      
1 37258U 10069A   26197.82892022  .00000051  00000+0  00000+0 0  9993
2 37258   0.0610   0.9714 0004544 143.3373  97.7421  1.00271210 44301
HISPASAT 30W-5          
1 37264U 10070A   26197.84559152 -.00000227  00000+0  00000+0 0  9994
2 37264   0.0320 108.4910 0005665  19.4864  81.0953  1.00270184 53485
KOREASAT 6              
1 37265U 10070B   26197.80056571 -.00000122  00000+0  00000+0 0  9992
2 37265   0.0145  60.7366 0002575  68.5709 253.4123  1.00271120 57069
BEIDOU-2 IGSO-3         
1 37384U 11013A   26197.50462090 -.00000169  00000+0  00000+0 0  9997
2 37384  62.4487  39.8739 0035582 183.5035 359.0316  1.00260363 55957
INTELSAT 28 (IS-28)     
1 37392U 11016A   26197.84559152 -.00000236  00000+0  00000+0 0  9997
2 37392   1.8811  82.2607 0003742  40.7092  84.4035  1.00272027 53584
YAHSAT 1A               
1 37393U 11016B   26197.81017090  .00000000  00000+0  00000+0 0  9993
2 37393   0.0219  72.7690 0003313  46.6633 159.3804  1.00270909 42709
SBIRS GEO-1 (USA 230)   
1 37481U 11019A   26197.81017090  .00000088  00000+0  00000+0 0  9990
2 37481   4.5996  53.0964 0001917  56.9147 168.0904  1.00272379 55699
TELSTAR 14R             
1 37602U 11021A   26195.54654036 -.00000288  00000+0  00000+0 0  9996
2 37602   0.0856  84.9749 0001600   1.1935 339.9946  1.00270342 56100
GSAT-8                  
1 37605U 11022A   26197.85109167  .00000073  00000+0  00000+0 0  9997
2 37605   2.2059  81.4603 0002587 160.4460  54.2533  1.00272175 53517
ST-2                    
1 37606U 11022B   26197.76086564 -.00000222  00000+0  00000+0 0  9990
2 37606   0.0133  79.2188 0001577  53.0064 164.2938  1.00271647 55577
ZHONGXING-10            
1 37677U 11026A   26197.90558483 -.00000199  00000+0  00000+0 0  9995
2 37677   1.1219  83.8348 0003311  20.0312 242.3520  1.00273513 55297
SES-3                   
1 37748U 11035A   26197.60590999 -.00000113  00000+0  00000+0 0  9995
2 37748   1.4008  82.7593 0002000  33.3515 293.4605  1.00271460 54885
KAZSAT-2                
1 37749U 11035B   26197.76086564 -.00000208  00000+0  00000+0 0  9996
2 37749   0.0263 113.4645 0001970  58.7720 122.7667  1.00272664 53695
BEIDOU-2 IGSO-4         
1 37763U 11038A   26193.91136250 -.00000017  00000+0  00000+0 0  9994
2 37763  54.6038 165.4445 0160342 231.4539 316.2369  1.00279714 54905
ASTRA 1N                
1 37775U 11041A   26197.82336531  .00000109  00000+0  00000+0 0  9990
2 37775   0.0619  13.3405 0005819 101.6889 135.2044  1.00270503 44824
BSAT-3C (JCSAT-110R)    
1 37776U 11041B   26197.75204362 -.00000361  00000+0  00000+0 0  9990
2 37776   0.0382 298.6507 0000221 252.4184 124.1914  1.00270860 50767
PAKSAT-1R               
1 37779U 11042A   26197.81572586  .00000143  00000+0  00000+0 0  9994
2 37779   0.7640  84.3166 0003111 351.7449 190.2045  1.00269516 54773
